[Satellite]
VERSION=1.1
NAME=PRISMA (MANGO)
NICKNAME=PRISMA (MANGO)
TLE1=1 36599U 10028B   11060.34158762 -.00000005  00000-0  11407-4 0  7527
TLE2=2 36599  98.2838 244.4031 0044610 132.4400 279.9616 14.40870073 37250
